STARLINK-2476_new
1 18134C 21027AU  21326.18212037  .00002103  00000-0  14087-3 0  3263
2 18134  53.0558  12.9229 0001416  60.1934 217.6391 15.06412335    18
STARLINK-2476_old
1 28134C 21027AU  21325.15071026  .00002382  00000-0  15955-3 0  3253
2 28134  53.0558  17.5532 0001368  63.1702  18.1812 15.06399339    18
